OBJECT_NAME,OBJECT_ID,EPOCH,MEAN_MOTION,ECCENTRICITY,INCLINATION,RA_OF_ASC_NODE,ARG_OF_PERICENTER,MEAN_ANOMALY,EPHEMERIS_TYPE,CLASSIFICATION_TYPE,NORAD_CAT_ID,ELEMENT_SET_NO,REV_AT_EPOCH,BSTAR,MEAN_MOTION_DOT,MEAN_MOTION_DDOT
BEIDOU-3S IGSO-1S (C31),2015-019A,2026-06-12T20:28:16.705632,1.00251378,.00388927,49.2042,295.5153,190.7649,173.7832,0,U,40549,999,4103,0,-.181E-5,0
GPS BIIF-10 (PRN 08),2015-033A,2026-06-13T05:34:27.623424,2.00556392,.0115057,53.9855,267.2497,30.2220,330.4618,0,U,40730,999,7991,0,-.19E-6,0
BEIDOU-3S M2S (C58),2015-037A,2026-06-11T22:53:31.021728,1.86232251,.00081079,54.8763,302.2271,260.4209,99.4710,0,U,40748,999,7402,0,-.67E-6,0
BEIDOU-3S M1S (C57),2015-037B,2026-06-13T05:39:19.373760,1.86254754,.00035174,54.8712,302.1701,61.4306,298.5865,0,U,40749,999,7405,0,-.69E-6,0
GSAT0205 (GALILEO 9),2015-045A,2026-05-24T07:17:44.873376,1.67409242,.00064058,54.9357,222.4171,263.0112,96.9692,0,U,40889,999,6656,0,-.14E-6,0
GSAT0206 (GALILEO 10),2015-045B,2026-06-11T14:11:42.643392,1.70473866,.00016772,54.9462,221.7590,340.3003,19.7849,0,U,40890,999,6694,0,.56E-6,0
BEIDOU-3S IGSO-2S (C56),2015-053A,2026-06-12T17:52:21.677376,1.00260456,.00656493,49.2285,258.8368,191.9676,173.7648,0,U,40938,999,3931,0,-.142E-5,0
GPS BIIF-11 (PRN 10),2015-062A,2026-06-09T07:11:53.760192,2.00566961,.01116543,56.9540,31.1152,231.1327,127.9172,0,U,41019,999,7767,0,-.64E-6,0
GSAT-15 (GAGAN/PRN 139),2015-065A,2026-06-13T01:37:15.494880,1.00269799,.00039969,0.0809,266.0040,160.3497,312.8399,0,U,41028,999,3875,0,-.244E-5,0
GSAT0209 (GALILEO 12),2015-079A,2026-06-11T18:13:38.595072,1.70473724,.00053697,55.8242,101.4109,341.4474,18.4942,0,U,41174,999,6468,0,.7E-7,0
GSAT0208 (GALILEO 11),2015-079B,2026-06-09T15:12:09.629856,1.70473549,.00048989,55.8212,101.4660,340.3551,19.5970,0,U,41175,999,6506,0,.22E-6,0
IRNSS-1E,2016-003A,2026-06-12T15:26:18.985920,1.00267194,.00179637,33.2248,59.8162,179.0965,5.2620,0,U,41241,999,3803,0,-.313E-5,0
GPS BIIF-12 (PRN 32),2016-007A,2026-06-10T21:16:03.868896,2.00551975,.00960688,55.5202,89.7095,247.3778,111.5924,0,U,41328,999,7571,0,-.12E-6,0
COSMOS 2514 (751),2016-008A,2026-06-12T14:13:17.477760,2.13102522,.001112,65.0246,313.1642,197.6902,162.2592,0,U,41330,999,8052,0,-.49E-6,0
BEIDOU-2 IGSO-6 (C13),2016-021A,2026-06-11T23:38:37.367808,1.00260204,.00570767,60.2181,38.0924,231.5598,78.5171,0,U,41434,999,3742,0,-.157E-5,0
IRNSS-1G,2016-027A,2026-06-13T06:55:30.127296,1.00268008,.0007521,5.1885,97.5629,354.0478,43.4155,0,U,41469,999,3714,0,-.325E-5,0
GSAT0211 (GALILEO 14),2016-030A,2026-06-12T16:34:07.409856,1.70473888,.00029054,55.0965,221.8188,323.3374,36.7400,0,U,41549,999,6259,0,.6E-6,0
GSAT0210 (GALILEO 13),2016-030B,2026-06-12T08:39:54.847008,1.70473729,.00040525,55.0961,221.8258,240.3650,119.6902,0,U,41550,999,6258,0,.59E-6,0
BEIDOU-2 G7 (C03),2016-037A,2026-06-13T06:50:00.652992,1.00265803,.0006868,1.7089,69.2879,3.8389,41.4450,0,U,41586,999,685,0,-.341E-5,0
EUTELSAT 117 WEST B (WAAS/PRN 131),2016-038B,2026-06-12T16:03:52.998624,1.00272645,.0000296,0.0415,163.2294,263.8211,317.9261,0,U,41589,999,3661,0,.3E-7,0
GSAT0207 (GALILEO 15),2016-069A,2026-06-12T01:15:54.138816,1.70473572,.00053471,55.4957,101.2283,329.0702,30.8583,0,U,41859,999,5931,0,.4E-7,0
GSAT0212 (GALILEO 16),2016-069B,2026-06-12T11:49:31.821024,1.70473717,.00046589,55.4937,101.2113,357.7539,2.2023,0,U,41860,999,5957,0,0,0
GSAT0213 (GALILEO 17),2016-069C,2026-06-11T16:28:59.869920,1.70474158,.00050604,55.4953,101.2414,311.8034,48.1151,0,U,41861,999,5942,0,.7E-7,0
GSAT0214 (GALILEO 18),2016-069D,2026-06-12T10:04:11.984160,1.70473835,.00042871,55.4945,101.2137,319.1479,40.7786,0,U,41862,999,5956,0,.1E-7,0
SES-15 (WAAS/PRN 133),2017-026A,2026-06-12T16:00:23.334336,1.00271358,.00008809,0.0213,330.6262,52.5288,348.7826,0,U,42709,999,738,0,.74E-6,0
QZS-2 (QZSS/PRN 194),2017-028A,2026-06-09T12:56:43.810944,1.00285994,.07605811,39.4388,243.2674,269.1776,81.0235,0,U,42738,999,754,0,-.147E-5,0
QZS-3 (QZSS/PRN 199),2017-048A,2026-06-13T06:54:45.197568,1.00264910,.00024103,0.0245,173.1712,278.7610,40.3236,0,U,42917,999,3222,0,0,0
COSMOS 2522 (752),2017-055A,2026-06-12T10:19:45.500736,2.13102011,.00108024,64.0786,192.0463,240.5357,119.4330,0,U,42939,999,6787,0,.12E-5,0
QZS-4 (QZSS/PRN 195),2017-062A,2026-06-12T08:40:55.836768,1.00251829,.07452399,40.1109,343.5445,271.6622,273.0963,0,U,42965,999,3175,0,-.323E-5,0
BEIDOU-3 M1 (C19),2017-069A,2026-06-10T03:39:44.209728,1.86231422,.00106003,56.6854,63.3171,324.5878,35.3649,0,U,43001,999,5847,0,-.5E-6,0
BEIDOU-3 M2 (C20),2017-069B,2026-06-12T18:37:35.969664,1.86230859,.00092204,56.6872,63.2666,350.0125,9.9939,0,U,43002,999,5851,0,-.55E-6,0
